ONEWEB-0063             
1 45448U 20020AA  26192.51263885  .00000431  00000+0  11795-2 0  9999
2 45448  87.8872  16.2260 0001945  80.3473 279.7875 13.11414677305882
ONEWEB-0019             
1 45449U 20020AB  26192.47504237 -.00000185  00000+0 -55673-3 0  9996
2 45449  87.8883  16.2194 0001895  94.4025 265.7319 13.11409137305720
ONEWEB-0094             
1 45450U 20020AC  26192.50252560  .00000042  00000+0  74462-4 0  9999
2 45450  87.9138   1.0123 0001500  95.5364 264.5939 13.17648664309513
ONEWEB-0087             
1 45451U 20020AD  26192.52252837 -.00000171  00000+0 -51732-3 0  9998
2 45451  87.8898  16.2007 0001504  91.7372 268.3929 13.11414736305776
ONEWEB-0082             
1 45452U 20020AE  26192.51914087  .00000035  00000+0  64212-4 0  9995
2 45452  87.8892  16.2160 0001380  83.1522 276.9762 13.11414964305868
ONEWEB-0050             
1 45453U 20020AF  26192.51445044  .00000988  00000+0  99116-4 0  9996
2 45453  88.9282 229.9060 0001460 189.4990 170.6211 14.90466306344007
ONEWEB-0034             
1 45454U 20020AG  26192.48043609  .00000242  00000+0  64820-3 0  9990
2 45454  87.8933  16.2369 0001477  86.0921 274.0376 13.11415756305779
ONEWEB-0060             
1 45455U 20020AH  26192.51165608  .00000331  00000+0  89891-3 0  9993
2 45455  87.8881  16.2227 0001048 115.0545 245.0692 13.11414652305733
ONEWEB-0086             
1 45456U 20020AJ  26192.49032363  .00000442  00000+0  12115-2 0  9999
2 45456  87.8891  16.2238 0001695 115.0727 245.0577 13.11418502305793
ONEWEB-0088             
1 45457U 20020AK  26192.54469682 -.00000380  00000+0 -11075-2 0  9991
2 45457  87.8896  16.1879 0001811  75.5897 284.5431 13.11417970305736
ONEWEB-0102             
1 47258U 20100A   26192.37738028 -.00000397  00000+0 -11384-2 0  9996
2 47258  87.8955 345.8639 0001980 103.7394 256.3955 13.12443074267901
ONEWEB-0109             
1 47259U 20100B   26192.38585154 -.00000277  00000+0 -80509-3 0  9991
2 47259  87.8963 345.8481 0001985  97.5575 262.5779 13.12443911267736
ONEWEB-0110             
1 47260U 20100C   26192.41297534  .00000407  00000+0  10972-2 0  9998
2 47260  87.8967 345.8264 0001771 104.8985 255.2340 13.12443250267909
ONEWEB-0111             
1 47261U 20100D   26190.68999861 -.00000353  00000+0 -10165-2 0  9994
2 47261  87.8963 346.1877 0001725  95.4095 264.7231 13.12443215267518
ONEWEB-0114             
1 47262U 20100E   26192.47395002  .00000035  00000+0  62788-4 0  9996
2 47262  87.8972 345.8311 0002077  94.8198 265.3168 13.12443599267708
ONEWEB-0117             
1 47263U 20100F   26192.38923877 -.00000199  00000+0 -58852-3 0  9993
2 47263  87.8965 345.8382 0001842  96.7636 263.3703 13.12443332267704
ONEWEB-0118             
1 47264U 20100G   26192.49936723  .00000466  00000+0  12590-2 0  9993
2 47264  87.8952 345.8172 0002183  91.8053 268.3325 13.12441813267916
ONEWEB-0119             
1 47265U 20100H   26191.38121500 -.00000381  00000+0 -10932-2 0  9996
2 47265  87.8953 346.0557 0001869  95.0401 265.0941 13.12442497267749
ONEWEB-0120             
1 47266U 20100J   26192.47239295 -.00000051  00000+0 -17631-3 0  9997
2 47266  87.8950 345.8406 0002006  98.1727 261.9629 13.12443506267915
ONEWEB-0121             
1 47267U 20100K   26192.38415319 -.00000253  00000+0 -73905-3 0  9991
2 47267  87.8968 345.8467 0001428  95.1371 264.9921 13.12442519267811
ONEWEB-0122             
1 47268U 20100L   26192.37821963 -.00000472  00000+0 -13472-2 0  9992
2 47268  87.8964 345.8528 0001803  97.3044 262.8289 13.12441925267728
ONEWEB-0123             
1 47269U 20100M   26192.37398819 -.00000392  00000+0 -11262-2 0  9998
2 47269  87.8950 345.8574 0001875  91.9802 268.1542 13.12442290267868
ONEWEB-0124             
1 47270U 20100N   26192.36382688 -.00000102  00000+0 -32005-3 0  9994
2 47270  87.8955 345.8622 0001671  94.8990 265.2330 13.12441465267746
ONEWEB-0125             
1 47271U 20100P   26192.49428354  .00000436  00000+0  11766-2 0  9998
2 47271  87.8967 345.8223 0001659  87.5725 272.5594 13.12442605267827
ONEWEB-0126             
1 47272U 20100Q   26192.43851921  .00000055  00000+0  11619-3 0  9998
2 47272  87.8964 345.8470 0001924  97.5611 262.5736 13.12441566267887
ONEWEB-0127             
1 47273U 20100R   26192.48073049  .00000281  00000+0  74694-3 0  9994
2 47273  87.8956 345.8362 0001988  95.0170 265.1185 13.12444069267914
ONEWEB-0128             
1 47274U 20100S   26190.67305850  .00000005  00000+0 -21342-4 0  9990
2 47274  87.8955 346.2097 0001717 105.7917 254.3401 13.12441658267699
ONEWEB-0129             
1 47275U 20100T   26192.48242528  .00000207  00000+0  53990-3 0  9990
2 47275  87.8966 345.8264 0002976  96.0260 264.1208 13.12442289267868
ONEWEB-0130             
1 47276U 20100U   26192.43329411  .00000149  00000+0  37941-3 0  9996
2 47276  87.8998 345.8320 0001914 100.5832 259.5512 13.12441617267820
ONEWEB-0131             
1 47277U 20100V   26192.42990856  .00000186  00000+0  48103-3 0  9996
2 47277  87.8957 345.8481 0001819 100.3166 259.8168 13.12441192267868
