OBJECT_NAME,OBJECT_ID,EPOCH,MEAN_MOTION,ECCENTRICITY,INCLINATION,RA_OF_ASC_NODE,ARG_OF_PERICENTER,MEAN_ANOMALY,EPHEMERIS_TYPE,CLASSIFICATION_TYPE,NORAD_CAT_ID,ELEMENT_SET_NO,REV_AT_EPOCH,BSTAR,MEAN_MOTION_DOT,MEAN_MOTION_DDOT
ONEWEB-0063,2020-020AA,2026-07-11T12:18:11.996640,13.11414677,.0001945,87.8872,16.2260,80.3473,279.7875,0,U,45448,999,30588,.11795E-2,.431E-5,0
ONEWEB-0019,2020-020AB,2026-07-11T11:24:03.660768,13.11409137,.0001895,87.8883,16.2194,94.4025,265.7319,0,U,45449,999,30572,-.55673E-3,-.185E-5,0
ONEWEB-0094,2020-020AC,2026-07-11T12:03:38.211840,13.17648664,.00015,87.9138,1.0123,95.5364,264.5939,0,U,45450,999,30951,.74462E-4,.42E-6,0
ONEWEB-0087,2020-020AD,2026-07-11T12:32:26.451168,13.11414736,.0001504,87.8898,16.2007,91.7372,268.3929,0,U,45451,999,30577,-.51732E-3,-.171E-5,0
ONEWEB-0082,2020-020AE,2026-07-11T12:27:33.771168,13.11414964,.000138,87.8892,16.2160,83.1522,276.9762,0,U,45452,999,30586,.64212E-4,.35E-6,0
ONEWEB-0050,2020-020AF,2026-07-11T12:20:48.518016,14.90466306,.000146,88.9282,229.9060,189.4990,170.6211,0,U,45453,999,34400,.99116E-4,.988E-5,0
ONEWEB-0034,2020-020AG,2026-07-11T11:31:49.678176,13.11415756,.0001477,87.8933,16.2369,86.0921,274.0376,0,U,45454,999,30577,.6482E-3,.242E-5,0
ONEWEB-0060,2020-020AH,2026-07-11T12:16:47.085312,13.11414652,.0001048,87.8881,16.2227,115.0545,245.0692,0,U,45455,999,30573,.89891E-3,.331E-5,0
ONEWEB-0086,2020-020AJ,2026-07-11T11:46:03.961632,13.11418502,.0001695,87.8891,16.2238,115.0727,245.0577,0,U,45456,999,30579,.12115E-2,.442E-5,0
ONEWEB-0088,2020-020AK,2026-07-11T13:04:21.805248,13.11417970,.0001811,87.8896,16.1879,75.5897,284.5431,0,U,45457,999,30573,-.11075E-2,-.38E-5,0
ONEWEB-0102,2020-100A,2026-07-11T09:03:25.656192,13.12443074,.000198,87.8955,345.8639,103.7394,256.3955,0,U,47258,999,26790,-.11384E-2,-.397E-5,0
ONEWEB-0109,2020-100B,2026-07-11T09:15:37.573056,13.12443911,.0001985,87.8963,345.8481,97.5575,262.5779,0,U,47259,999,26773,-.80509E-3,-.277E-5,0
ONEWEB-0110,2020-100C,2026-07-11T09:54:41.069376,13.12443250,.0001771,87.8967,345.8264,104.8985,255.2340,0,U,47260,999,26790,.10972E-2,.407E-5,0
ONEWEB-0111,2020-100D,2026-07-09T16:33:35.879904,13.12443215,.00017254,87.8963,346.1877,95.4095,264.7231,0,U,47261,999,26751,-.10165326E-2,-.353E-5,0
ONEWEB-0114,2020-100E,2026-07-11T11:22:29.281728,13.12443599,.0002077,87.8972,345.8311,94.8198,265.3168,0,U,47262,999,26770,.62788E-4,.35E-6,0
ONEWEB-0117,2020-100F,2026-07-11T09:20:30.229728,13.12443332,.0001842,87.8965,345.8382,96.7636,263.3703,0,U,47263,999,26770,-.58852E-3,-.199E-5,0
ONEWEB-0118,2020-100G,2026-07-11T11:59:05.328672,13.12441813,.0002183,87.8952,345.8172,91.8053,268.3325,0,U,47264,999,26791,.1259E-2,.466E-5,0
ONEWEB-0119,2020-100H,2026-07-10T09:08:56.976000,13.12442497,.00018699,87.8953,346.0557,95.0401,265.0941,0,U,47265,999,26774,-.10932025E-2,-.381E-5,0
ONEWEB-0120,2020-100J,2026-07-11T11:20:14.750880,13.12443506,.0002006,87.8950,345.8406,98.1727,261.9629,0,U,47266,999,26791,-.17631E-3,-.51E-6,0
ONEWEB-0121,2020-100K,2026-07-11T09:13:10.835616,13.12442519,.0001428,87.8968,345.8467,95.1371,264.9921,0,U,47267,999,26781,-.73905E-3,-.253E-5,0
ONEWEB-0122,2020-100L,2026-07-11T09:04:38.176032,13.12441925,.0001803,87.8964,345.8528,97.3044,262.8289,0,U,47268,999,26772,-.13472E-2,-.472E-5,0
ONEWEB-0123,2020-100M,2026-07-11T08:58:32.579616,13.12442290,.0001875,87.8950,345.8574,91.9802,268.1542,0,U,47269,999,26786,-.11262E-2,-.392E-5,0
ONEWEB-0124,2020-100N,2026-07-11T08:43:54.642432,13.12441465,.0001671,87.8955,345.8622,94.8990,265.2330,0,U,47270,999,26774,-.32005E-3,-.102E-5,0
ONEWEB-0125,2020-100P,2026-07-11T11:51:46.097856,13.12442605,.0001659,87.8967,345.8223,87.5725,272.5594,0,U,47271,999,26782,.11766E-2,.436E-5,0
ONEWEB-0126,2020-100Q,2026-07-11T10:31:28.059744,13.12441566,.0001924,87.8964,345.8470,97.5611,262.5736,0,U,47272,999,26788,.11619E-3,.55E-6,0
ONEWEB-0127,2020-100R,2026-07-11T11:32:15.114336,13.12444069,.0001988,87.8956,345.8362,95.0170,265.1185,0,U,47273,999,26791,.74694E-3,.281E-5,0
ONEWEB-0128,2020-100S,2026-07-09T16:09:12.254400,13.12441658,.00017179,87.8955,346.2097,105.7917,254.3401,0,U,47274,999,26769,-.21342131E-4,.5E-7,0
ONEWEB-0129,2020-100T,2026-07-11T11:34:41.544192,13.12442289,.0002976,87.8966,345.8264,96.0260,264.1208,0,U,47275,999,26786,.5399E-3,.207E-5,0
ONEWEB-0130,2020-100U,2026-07-11T10:23:56.611104,13.12441617,.0001914,87.8998,345.8320,100.5832,259.5512,0,U,47276,999,26782,.37941E-3,.149E-5,0
ONEWEB-0131,2020-100V,2026-07-11T10:19:04.099584,13.12441192,.0001819,87.8957,345.8481,100.3166,259.8168,0,U,47277,999,26786,.48103E-3,.186E-5,0
